[{"OBJECT_NAME":"SL-8 R/B","OBJECT_ID":"1988-053B","EPOCH":"2026-04-01T02:45:37.078272","MEAN_MOTION":14.38931847,"ECCENTRICITY":0.0021409,"INCLINATION":74.0462,"RA_OF_ASC_NODE":71.1255,"ARG_OF_PERICENTER":247.4387,"MEAN_ANOMALY":184.6317,"EPHEMERIS_TYPE":0,"CLASSIFICATION_TYPE":"U","NORAD_CAT_ID":19257,"ELEMENT_SET_NO":999,"REV_AT_EPOCH":97982,"BSTAR":0.00013245,"MEAN_MOTION_DOT":3.83e-6,"MEAN_MOTION_DDOT":0},{"OBJECT_NAME":"COSMOS 1975","OBJECT_ID":"1988-093A","EPOCH":"2026-04-01T04:24:27.639072","MEAN_MOTION":15.28384195,"ECCENTRICITY":0.0013403,"INCLINATION":82.5154,"RA_OF_ASC_NODE":95.0934,"ARG_OF_PERICENTER":92.303,"MEAN_ANOMALY":267.9744,"EPHEMERIS_TYPE":0,"CLASSIFICATION_TYPE":"U","NORAD_CAT_ID":19573,"ELEMENT_SET_NO":999,"REV_AT_EPOCH":2284,"BSTAR":0.00024478,"MEAN_MOTION_DOT":6.814e-5,"MEAN_MOTION_DDOT":0},{"OBJECT_NAME":"SL-14 R/B","OBJECT_ID":"1988-093B","EPOCH":"2026-04-01T05:50:53.750688","MEAN_MOTION":14.85683361,"ECCENTRICITY":0.0019816,"INCLINATION":82.5343,"RA_OF_ASC_NODE":20.8756,"ARG_OF_PERICENTER":327.4381,"MEAN_ANOMALY":193.7289,"EPHEMERIS_TYPE":0,"CLASSIFICATION_TYPE":"U","NORAD_CAT_ID":19574,"ELEMENT_SET_NO":999,"REV_AT_EPOCH":436,"BSTAR":6.616e-5,"MEAN_MOTION_DOT":5.99e-6,"MEAN_MOTION_DDOT":0},{"OBJECT_NAME":"SL-16 R/B","OBJECT_ID":"1988-102B","EPOCH":"2026-04-01T03:43:02.356896","MEAN_MOTION":14.16153752,"ECCENTRICITY":0.0015253,"INCLINATION":70.9969,"RA_OF_ASC_NODE":104.227,"ARG_OF_PERICENTER":328.4588,"MEAN_ANOMALY":31.5619,"EPHEMERIS_TYPE":0,"CLASSIFICATION_TYPE":"U","NORAD_CAT_ID":19650,"ELEMENT_SET_NO":999,"REV_AT_EPOCH":93007,"BSTAR":6.6896e-5,"MEAN_MOTION_DOT":8.5e-7,"MEAN_MOTION_DDOT":0},{"OBJECT_NAME":"INTERCOSMOS 24","OBJECT_ID":"1989-080A","EPOCH":"2026-03-31T23:08:25.202976","MEAN_MOTION":12.59586187,"ECCENTRICITY":0.11869237,"INCLINATION":82.6014,"RA_OF_ASC_NODE":89.8945,"ARG_OF_PERICENTER":241.0735,"MEAN_ANOMALY":106.6319,"EPHEMERIS_TYPE":0,"CLASSIFICATION_TYPE":"U","NORAD_CAT_ID":20261,"ELEMENT_SET_NO":999,"REV_AT_EPOCH":66960,"BSTAR":0.00017157676,"MEAN_MOTION_DOT":5.81e-6,"MEAN_MOTION_DDOT":0},{"OBJECT_NAME":"SL-14 R/B","OBJECT_ID":"1989-080C","EPOCH":"2026-04-01T04:49:18.783840","MEAN_MOTION":12.50515076,"ECCENTRICITY":0.1230907,"INCLINATION":82.595,"RA_OF_ASC_NODE":158.7413,"ARG_OF_PERICENTER":133.32,"MEAN_ANOMALY":237.7407,"EPHEMERIS_TYPE":0,"CLASSIFICATION_TYPE":"U","NORAD_CAT_ID":20262,"ELEMENT_SET_NO":999,"REV_AT_EPOCH":66296,"BSTAR":0.00011835,"MEAN_MOTION_DOT":4.23e-6,"MEAN_MOTION_DDOT":0},{"OBJECT_NAME":"DELTA 1 R/B","OBJECT_ID":"1989-089B","EPOCH":"2026-04-01T04:13:04.717056","MEAN_MOTION":14.50681654,"ECCENTRICITY":0.0070333,"INCLINATION":97.0688,"RA_OF_ASC_NODE":295.0347,"ARG_OF_PERICENTER":52.3133,"MEAN_ANOMALY":308.4415,"EPHEMERIS_TYPE":0,"CLASSIFICATION_TYPE":"U","NORAD_CAT_ID":20323,"ELEMENT_SET_NO":999,"REV_AT_EPOCH":89899,"BSTAR":0.00010365,"MEAN_MOTION_DOT":3.85e-6,"MEAN_MOTION_DDOT":0},{"OBJECT_NAME":"ARIANE 40 R/B","OBJECT_ID":"1990-005H","EPOCH":"2026-04-01T04:32:57.699744","MEAN_MOTION":14.39885236,"ECCENTRICITY":0.0011135,"INCLINATION":98.3037,"RA_OF_ASC_NODE":151.1754,"ARG_OF_PERICENTER":133.2837,"MEAN_ANOMALY":226.9282,"EPHEMERIS_TYPE":0,"CLASSIFICATION_TYPE":"U","NORAD_CAT_ID":20443,"ELEMENT_SET_NO":999,"REV_AT_EPOCH":89604,"BSTAR":0.0001078,"MEAN_MOTION_DOT":2.97e-6,"MEAN_MOTION_DDOT":0},{"OBJECT_NAME":"DELTA 2 R/B(1)","OBJECT_ID":"1990-008B","EPOCH":"2026-04-01T04:41:03.475104","MEAN_MOTION":15.59028049,"ECCENTRICITY":0.0076892,"INCLINATION":35.6042,"RA_OF_ASC_NODE":26.8269,"ARG_OF_PERICENTER":110.1591,"MEAN_ANOMALY":250.7437,"EPHEMERIS_TYPE":0,"CLASSIFICATION_TYPE":"U","NORAD_CAT_ID":20453,"ELEMENT_SET_NO":999,"REV_AT_EPOCH":92964,"BSTAR":0.00075462,"MEAN_MOTION_DOT":0.00070637,"MEAN_MOTION_DDOT":0},{"OBJECT_NAME":"COSMOS 2058","OBJECT_ID":"1990-010A","EPOCH":"2026-04-01T02:11:49.016256","MEAN_MOTION":15.11536754,"ECCENTRICITY":0.0007653,"INCLINATION":82.4712,"RA_OF_ASC_NODE":25.3541,"ARG_OF_PERICENTER":252.6612,"MEAN_ANOMALY":107.3781,"EPHEMERIS_TYPE":0,"CLASSIFICATION_TYPE":"U","NORAD_CAT_ID":20465,"ELEMENT_SET_NO":999,"REV_AT_EPOCH":94562,"BSTAR":0.00038644,"MEAN_MOTION_DOT":6.58e-5,"MEAN_MOTION_DDOT":0},{"OBJECT_NAME":"SL-14 R/B","OBJECT_ID":"1990-010B","EPOCH":"2026-03-31T22:39:34.345728","MEAN_MOTION":14.83590753,"ECCENTRICITY":0.00187809,"INCLINATION":82.5001,"RA_OF_ASC_NODE":246.4786,"ARG_OF_PERICENTER":223.4943,"MEAN_ANOMALY":136.4792,"EPHEMERIS_TYPE":0,"CLASSIFICATION_TYPE":"U","NORAD_CAT_ID":20466,"ELEMENT_SET_NO":999,"REV_AT_EPOCH":93178,"BSTAR":7.9590521e-5,"MEAN_MOTION_DOT":6.81e-6,"MEAN_MOTION_DDOT":0},{"OBJECT_NAME":"SL-14 R/B","OBJECT_ID":"1990-018B","EPOCH":"2026-04-01T01:13:11.326656","MEAN_MOTION":14.82167665,"ECCENTRICITY":0.0016695,"INCLINATION":82.5239,"RA_OF_ASC_NODE":202.1938,"ARG_OF_PERICENTER":23.3164,"MEAN_ANOMALY":336.8804,"EPHEMERIS_TYPE":0,"CLASSIFICATION_TYPE":"U","NORAD_CAT_ID":20511,"ELEMENT_SET_NO":999,"REV_AT_EPOCH":92589,"BSTAR":7.1774e-5,"MEAN_MOTION_DOT":5.96e-6,"MEAN_MOTION_DDOT":0},{"OBJECT_NAME":"HST","OBJECT_ID":"1990-037B","EPOCH":"2026-04-01T03:00:16.339104","MEAN_MOTION":15.2984387,"ECCENTRICITY":0.0001974,"INCLINATION":28.4719,"RA_OF_ASC_NODE":246.9114,"ARG_OF_PERICENTER":26.3027,"MEAN_ANOMALY":333.7668,"EPHEMERIS_TYPE":0,"CLASSIFICATION_TYPE":"U","NORAD_CAT_ID":20580,"ELEMENT_SET_NO":999,"REV_AT_EPOCH":77675,"BSTAR":0.00035185,"MEAN_MOTION_DOT":0.00010706,"MEAN_MOTION_DDOT":0},{"OBJECT_NAME":"SL-16 R/B","OBJECT_ID":"1990-046B","EPOCH":"2026-04-01T04:15:08.523936","MEAN_MOTION":14.15018108,"ECCENTRICITY":0.0016448,"INCLINATION":70.9983,"RA_OF_ASC_NODE":250.6813,"ARG_OF_PERICENTER":270.3201,"MEAN_ANOMALY":89.6037,"EPHEMERIS_TYPE":0,"CLASSIFICATION_TYPE":"U","NORAD_CAT_ID":20625,"ELEMENT_SET_NO":999,"REV_AT_EPOCH":85157,"BSTAR":8.6465e-5,"MEAN_MOTION_DOT":1.2e-6,"MEAN_MOTION_DDOT":0},{"OBJECT_NAME":"COSMOS 2084","OBJECT_ID":"1990-055A","EPOCH":"2026-04-01T04:03:32.546016","MEAN_MOTION":15.05781279,"ECCENTRICITY":0.0013458,"INCLINATION":62.7892,"RA_OF_ASC_NODE":258.8986,"ARG_OF_PERICENTER":197.4488,"MEAN_ANOMALY":162.6152,"EPHEMERIS_TYPE":0,"CLASSIFICATION_TYPE":"U","NORAD_CAT_ID":20663,"ELEMENT_SET_NO":999,"REV_AT_EPOCH":93970,"BSTAR":0.00023313,"MEAN_MOTION_DOT":3.199e-5,"MEAN_MOTION_DDOT":0},{"OBJECT_NAME":"SL-6 R/B(2)","OBJECT_ID":"1990-055D","EPOCH":"2026-03-31T23:35:41.341632","MEAN_MOTION":15.03704201,"ECCENTRICITY":0.0028468,"INCLINATION":62.7835,"RA_OF_ASC_NODE":178.0323,"ARG_OF_PERICENTER":352.0719,"MEAN_ANOMALY":7.9926,"EPHEMERIS_TYPE":0,"CLASSIFICATION_TYPE":"U","NORAD_CAT_ID":20666,"ELEMENT_SET_NO":999,"REV_AT_EPOCH":94154,"BSTAR":0.00021049,"MEAN_MOTION_DOT":2.722e-5,"MEAN_MOTION_DDOT":0},{"OBJECT_NAME":"SL-8 R/B","OBJECT_ID":"1990-078B","EPOCH":"2026-04-01T01:56:45.555648","MEAN_MOTION":14.89725195,"ECCENTRICITY":0.0357967,"INCLINATION":82.9032,"RA_OF_ASC_NODE":231.1595,"ARG_OF_PERICENTER":298.4482,"MEAN_ANOMALY":58.1101,"EPHEMERIS_TYPE":0,"CLASSIFICATION_TYPE":"U","NORAD_CAT_ID":20775,"ELEMENT_SET_NO":999,"REV_AT_EPOCH":81263,"BSTAR":0.00040923,"MEAN_MOTION_DOT":0.00013809,"MEAN_MOTION_DDOT":0}]
