SL-8 R/B                
1 19257U 88053B   26091.11501248  .00000383  00000+0  13245-3 0  9999
2 19257  74.0462  71.1255 0021409 247.4387 184.6317 14.38931847979824
COSMOS 1975             
1 19573U 88093A   26091.18365323  .00006814  00000+0  24478-3 0  9998
2 19573  82.5154  95.0934 0013403  92.3030 267.9744 15.28384195 22841
SL-14 R/B               
1 19574U 88093B   26091.24367767  .00000599  00000+0  66160-4 0  9999
2 19574  82.5343  20.8756 0019816 327.4381 193.7289 14.85683361  4361
SL-16 R/B               
1 19650U 88102B   26091.15488839  .00000085  00000+0  66896-4 0  9995
2 19650  70.9969 104.2270 0015253 328.4588  31.5619 14.16153752930072
INTERCOSMOS 24          
1 20261U 89080A   26090.96418058  .00000581  00000+0  17158-3 0  9992
2 20261  82.6014  89.8945 1186924 241.0735 106.6319 12.59586187669605
SL-14 R/B               
1 20262U 89080C   26091.20091185  .00000423  00000+0  11835-3 0  9990
2 20262  82.5950 158.7413 1230907 133.3200 237.7407 12.50515076662967
DELTA 1 R/B             
1 20323U 89089B   26091.17574904  .00000385  00000+0  10365-3 0  9992
2 20323  97.0688 295.0347 0070333  52.3133 308.4415 14.50681654898991
ARIANE 40 R/B           
1 20443U 90005H   26091.18955671  .00000297  00000+0  10780-3 0  9993
2 20443  98.3037 151.1754 0011135 133.2837 226.9282 14.39885236896044
DELTA 2 R/B(1)          
1 20453U 90008B   26091.19517911  .00070637  00000+0  75462-3 0  9992
2 20453  35.6042  26.8269 0076892 110.1591 250.7437 15.59028049929640
COSMOS 2058             
1 20465U 90010A   26091.09153954  .00006580  00000+0  38644-3 0  9997
2 20465  82.4712  25.3541 0007653 252.6612 107.3781 15.11536754945629
SL-14 R/B               
1 20466U 90010B   26090.94414752  .00000681  00000+0  79591-4 0  9990
2 20466  82.5001 246.4786 0018781 223.4943 136.4792 14.83590753931780
SL-14 R/B               
1 20511U 90018B   26091.05082554  .00000596  00000+0  71774-4 0  9993
2 20511  82.5239 202.1938 0016695  23.3164 336.8804 14.82167665925892
HST                     
1 20580U 90037B   26091.12518911  .00010706  00000+0  35185-3 0  9998
2 20580  28.4719 246.9114 0001974  26.3027 333.7668 15.29843870776751
SL-16 R/B               
1 20625U 90046B   26091.17718199  .00000120  00000+0  86465-4 0  9990
2 20625  70.9983 250.6813 0016448 270.3201  89.6037 14.15018108851574
COSMOS 2084             
1 20663U 90055A   26091.16912669  .00003199  00000+0  23313-3 0  9990
2 20663  62.7892 258.8986 0013458 197.4488 162.6152 15.05781279939707
SL-6 R/B(2)             
1 20666U 90055D   26090.98311738  .00002722  00000+0  21049-3 0  9997
2 20666  62.7835 178.0323 0028468 352.0719   7.9926 15.03704201941541
SL-8 R/B                
1 20775U 90078B   26091.08108282  .00013809  00000+0  40923-3 0  9993
2 20775  82.9032 231.1595 0357967 298.4482  58.1101 14.89725195812634
